[{"OBJECT_NAME":"PROBA-1","OBJECT_ID":"2001-049B","EPOCH":"2026-03-02T20:26:45.798144","MEAN_MOTION":15.06977222,"ECCENTRICITY":0.0057065,"INCLINATION":97.9625,"RA_OF_ASC_NODE":66.6942,"ARG_OF_PERICENTER":121.4436,"MEAN_ANOMALY":239.2387,"EPHEMERIS_TYPE":0,"CLASSIFICATION_TYPE":"U","NORAD_CAT_ID":26958,"ELEMENT_SET_NO":999,"REV_AT_EPOCH":32760,"BSTAR":0.00014392,"MEAN_MOTION_DOT":2.163e-5,"MEAN_MOTION_DDOT":0},{"OBJECT_NAME":"CUTE-1 (CO-55)","OBJECT_ID":"2003-031E","EPOCH":"2026-03-02T12:55:39.721152","MEAN_MOTION":14.24259043,"ECCENTRICITY":0.0010451,"INCLINATION":98.6778,"RA_OF_ASC_NODE":71.4263,"ARG_OF_PERICENTER":131.1798,"MEAN_ANOMALY":229.0284,"EPHEMERIS_TYPE":0,"CLASSIFICATION_TYPE":"U","NORAD_CAT_ID":27844,"ELEMENT_SET_NO":999,"REV_AT_EPOCH":17649,"BSTAR":0.00020177,"MEAN_MOTION_DOT":4.22e-6,"MEAN_MOTION_DDOT":0},{"OBJECT_NAME":"CUBESAT XI-IV (CO-57)","OBJECT_ID":"2003-031J","EPOCH":"2026-03-02T11:22:31.020960","MEAN_MOTION":14.23555341,"ECCENTRICITY":0.00100734,"INCLINATION":98.6809,"RA_OF_ASC_NODE":71.1608,"ARG_OF_PERICENTER":147.897,"MEAN_ANOMALY":212.2824,"EPHEMERIS_TYPE":0,"CLASSIFICATION_TYPE":"U","NORAD_CAT_ID":27848,"ELEMENT_SET_NO":999,"REV_AT_EPOCH":17619,"BSTAR":0.00018145278,"MEAN_MOTION_DOT":3.7e-6,"MEAN_MOTION_DDOT":0},{"OBJECT_NAME":"APRIZESAT 4","OBJECT_ID":"2009-041D","EPOCH":"2026-03-02T18:37:24.844800","MEAN_MOTION":14.8369242,"ECCENTRICITY":0.004232,"INCLINATION":98.15,"RA_OF_ASC_NODE":134.9558,"ARG_OF_PERICENTER":307.7827,"MEAN_ANOMALY":51.9556,"EPHEMERIS_TYPE":0,"CLASSIFICATION_TYPE":"U","NORAD_CAT_ID":35684,"ELEMENT_SET_NO":999,"REV_AT_EPOCH":89558,"BSTAR":0.0001339,"MEAN_MOTION_DOT":1.064e-5,"MEAN_MOTION_DDOT":0},{"OBJECT_NAME":"APRIZESAT 3","OBJECT_ID":"2009-041F","EPOCH":"2026-03-02T08:28:39.826272","MEAN_MOTION":14.95862383,"ECCENTRICITY":0.00632259,"INCLINATION":98.1879,"RA_OF_ASC_NODE":209.5829,"ARG_OF_PERICENTER":60.6581,"MEAN_ANOMALY":300.0935,"EPHEMERIS_TYPE":0,"CLASSIFICATION_TYPE":"U","NORAD_CAT_ID":35686,"ELEMENT_SET_NO":999,"REV_AT_EPOCH":90040,"BSTAR":0.00025702946,"MEAN_MOTION_DOT":2.923e-5,"MEAN_MOTION_DDOT":0},{"OBJECT_NAME":"PROBA-2","OBJECT_ID":"2009-059B","EPOCH":"2026-03-02T15:15:41.606208","MEAN_MOTION":14.54785065,"ECCENTRICITY":0.0012078,"INCLINATION":98.2426,"RA_OF_ASC_NODE":246.4677,"ARG_OF_PERICENTER":247.7488,"MEAN_ANOMALY":112.2429,"EPHEMERIS_TYPE":0,"CLASSIFICATION_TYPE":"U","NORAD_CAT_ID":36037,"ELEMENT_SET_NO":999,"REV_AT_EPOCH":86603,"BSTAR":9.8556e-5,"MEAN_MOTION_DOT":3.77e-6,"MEAN_MOTION_DDOT":0},{"OBJECT_NAME":"APRIZESAT 5","OBJECT_ID":"2011-044E","EPOCH":"2026-03-02T19:06:12.717792","MEAN_MOTION":14.80829959,"ECCENTRICITY":0.0052253,"INCLINATION":98.2401,"RA_OF_ASC_NODE":351.8789,"ARG_OF_PERICENTER":346.8979,"MEAN_ANOMALY":13.0872,"EPHEMERIS_TYPE":0,"CLASSIFICATION_TYPE":"U","NORAD_CAT_ID":37792,"ELEMENT_SET_NO":999,"REV_AT_EPOCH":78304,"BSTAR":0.00024071,"MEAN_MOTION_DOT":1.841e-5,"MEAN_MOTION_DDOT":0},{"OBJECT_NAME":"APRIZESAT 6","OBJECT_ID":"2011-044F","EPOCH":"2026-03-02T16:55:41.204928","MEAN_MOTION":14.76733859,"ECCENTRICITY":0.0044532,"INCLINATION":98.2424,"RA_OF_ASC_NODE":330.0133,"ARG_OF_PERICENTER":67.2556,"MEAN_ANOMALY":346.7978,"EPHEMERIS_TYPE":0,"CLASSIFICATION_TYPE":"U","NORAD_CAT_ID":37793,"ELEMENT_SET_NO":999,"REV_AT_EPOCH":78143,"BSTAR":0.00016931,"MEAN_MOTION_DOT":1.149e-5,"MEAN_MOTION_DDOT":0},{"OBJECT_NAME":"PROBA-V","OBJECT_ID":"2013-021A","EPOCH":"2026-03-02T13:35:53.490048","MEAN_MOTION":14.23571431,"ECCENTRICITY":0.0005395,"INCLINATION":98.3495,"RA_OF_ASC_NODE":45.4895,"ARG_OF_PERICENTER":86.156,"MEAN_ANOMALY":274.0236,"EPHEMERIS_TYPE":0,"CLASSIFICATION_TYPE":"U","NORAD_CAT_ID":39159,"ELEMENT_SET_NO":999,"REV_AT_EPOCH":66594,"BSTAR":5.9371e-5,"MEAN_MOTION_DOT":9.4e-7,"MEAN_MOTION_DDOT":0},{"OBJECT_NAME":"APRIZESAT 7","OBJECT_ID":"2013-066A","EPOCH":"2026-03-02T19:32:16.539648","MEAN_MOTION":14.91254172,"ECCENTRICITY":0.0035262,"INCLINATION":97.7587,"RA_OF_ASC_NODE":16.6627,"ARG_OF_PERICENTER":201.7723,"MEAN_ANOMALY":158.1998,"EPHEMERIS_TYPE":0,"CLASSIFICATION_TYPE":"U","NORAD_CAT_ID":39416,"ELEMENT_SET_NO":999,"REV_AT_EPOCH":66537,"BSTAR":0.00020575,"MEAN_MOTION_DOT":2.013e-5,"MEAN_MOTION_DDOT":0},{"OBJECT_NAME":"APRIZESAT 8","OBJECT_ID":"2013-066K","EPOCH":"2026-03-02T19:01:39.153792","MEAN_MOTION":14.8739872,"ECCENTRICITY":0.0044596,"INCLINATION":97.8107,"RA_OF_ASC_NODE":10.8372,"ARG_OF_PERICENTER":276.4619,"MEAN_ANOMALY":83.1521,"EPHEMERIS_TYPE":0,"CLASSIFICATION_TYPE":"U","NORAD_CAT_ID":39425,"ELEMENT_SET_NO":999,"REV_AT_EPOCH":66385,"BSTAR":0.00019481,"MEAN_MOTION_DOT":1.736e-5,"MEAN_MOTION_DDOT":0},{"OBJECT_NAME":"BUGSAT-1 (TITA)","OBJECT_ID":"2014-033E","EPOCH":"2026-03-02T19:59:24.580896","MEAN_MOTION":15.14390924,"ECCENTRICITY":0.0028854,"INCLINATION":98.0445,"RA_OF_ASC_NODE":148.2681,"ARG_OF_PERICENTER":181.6159,"MEAN_ANOMALY":178.4982,"EPHEMERIS_TYPE":0,"CLASSIFICATION_TYPE":"U","NORAD_CAT_ID":40014,"ELEMENT_SET_NO":999,"REV_AT_EPOCH":63973,"BSTAR":0.00046573,"MEAN_MOTION_DOT":8.565e-5,"MEAN_MOTION_DDOT":0},{"OBJECT_NAME":"SAUDISAT 4","OBJECT_ID":"2014-033G","EPOCH":"2026-03-02T15:55:59.566368","MEAN_MOTION":14.79373683,"ECCENTRICITY":0.004611,"INCLINATION":97.7397,"RA_OF_ASC_NODE":211.5913,"ARG_OF_PERICENTER":61.0687,"MEAN_ANOMALY":299.5138,"EPHEMERIS_TYPE":0,"CLASSIFICATION_TYPE":"U","NORAD_CAT_ID":40016,"ELEMENT_SET_NO":999,"REV_AT_EPOCH":63032,"BSTAR":0.00014719,"MEAN_MOTION_DOT":1.065e-5,"MEAN_MOTION_DDOT":0},{"OBJECT_NAME":"APRIZESAT 9","OBJECT_ID":"2014-033J","EPOCH":"2026-03-02T08:51:47.126880","MEAN_MOTION":14.7405307,"ECCENTRICITY":0.0066323,"INCLINATION":97.8868,"RA_OF_ASC_NODE":197.2967,"ARG_OF_PERICENTER":182.622,"MEAN_ANOMALY":177.4651,"EPHEMERIS_TYPE":0,"CLASSIFICATION_TYPE":"U","NORAD_CAT_ID":40018,"ELEMENT_SET_NO":999,"REV_AT_EPOCH":62782,"BSTAR":0.00020208354,"MEAN_MOTION_DOT":1.325e-5,"MEAN_MOTION_DDOT":0},{"OBJECT_NAME":"APRIZESAT 10","OBJECT_ID":"2014-033K","EPOCH":"2026-03-02T19:05:37.665312","MEAN_MOTION":14.70736622,"ECCENTRICITY":0.0077707,"INCLINATION":97.9469,"RA_OF_ASC_NODE":191.2433,"ARG_OF_PERICENTER":253.2378,"MEAN_ANOMALY":106.0292,"EPHEMERIS_TYPE":0,"CLASSIFICATION_TYPE":"U","NORAD_CAT_ID":40019,"ELEMENT_SET_NO":999,"REV_AT_EPOCH":62661,"BSTAR":0.00016231,"MEAN_MOTION_DOT":9.83e-6,"MEAN_MOTION_DDOT":0},{"OBJECT_NAME":"TECHDEMOSAT-1 (TDS-1)","OBJECT_ID":"2014-037H","EPOCH":"2026-03-02T12:11:16.791936","MEAN_MOTION":15.11376449,"ECCENTRICITY":0.00046133,"INCLINATION":98.3756,"RA_OF_ASC_NODE":43.3374,"ARG_OF_PERICENTER":271.1472,"MEAN_ANOMALY":88.9227,"EPHEMERIS_TYPE":0,"CLASSIFICATION_TYPE":"U","NORAD_CAT_ID":40076,"ELEMENT_SET_NO":999,"REV_AT_EPOCH":63210,"BSTAR":0.0007421705,"MEAN_MOTION_DOT":0.00012465,"MEAN_MOTION_DDOT":0},{"OBJECT_NAME":"TECHNOSAT","OBJECT_ID":"2017-042E","EPOCH":"2026-03-02T10:38:44.525760","MEAN_MOTION":15.04208168,"ECCENTRICITY":0.00195462,"INCLINATION":97.4139,"RA_OF_ASC_NODE":223.2955,"ARG_OF_PERICENTER":98.4449,"MEAN_ANOMALY":261.8994,"EPHEMERIS_TYPE":0,"CLASSIFICATION_TYPE":"U","NORAD_CAT_ID":42829,"ELEMENT_SET_NO":999,"REV_AT_EPOCH":47065,"BSTAR":0.00037885315,"MEAN_MOTION_DOT":5.227e-5,"MEAN_MOTION_DDOT":0}]
