PROBA-1                 
1 26958U 01049B   26061.85191896  .00002163  00000+0  14392-3 0  9999
2 26958  97.9625  66.6942 0057065 121.4436 239.2387 15.06977222327600
CUTE-1 (CO-55)          
1 27844U 03031E   26061.53865418  .00000422  00000+0  20177-3 0  9994
2 27844  98.6778  71.4263 0010451 131.1798 229.0284 14.24259043176494
CUBESAT XI-IV (CO-57)   
1 27848U 03031J   26061.47397015  .00000370  00000+0  18145-3 0  9998
2 27848  98.6809  71.1608 0010073 147.8970 212.2824 14.23555341176199
APRIZESAT 4             
1 35684U 09041D   26061.77598200  .00001064  00000+0  13390-3 0  9992
2 35684  98.1500 134.9558 0042320 307.7827  51.9556 14.83692420895586
APRIZESAT 3             
1 35686U 09041F   26061.35323873  .00002923  00000+0  25703-3 0  9996
2 35686  98.1879 209.5829 0063225  60.6581 300.0935 14.95862383900403
PROBA-2                 
1 36037U 09059B   26061.63589822  .00000377  00000+0  98556-4 0  9993
2 36037  98.2426 246.4677 0012078 247.7488 112.2429 14.54785065866035
APRIZESAT 5             
1 37792U 11044E   26061.79598053  .00001841  00000+0  24071-3 0  9999
2 37792  98.2401 351.8789 0052253 346.8979  13.0872 14.80829959783046
APRIZESAT 6             
1 37793U 11044F   26061.70533802  .00001149  00000+0  16931-3 0  9999
2 37793  98.2424 330.0133 0044532  67.2556 346.7978 14.76733859781432
PROBA-V                 
1 39159U 13021A   26061.56659132  .00000094  00000+0  59371-4 0  9997
2 39159  98.3495  45.4895 0005395  86.1560 274.0236 14.23571431665945
APRIZESAT 7             
1 39416U 13066A   26061.81408032  .00002013  00000+0  20575-3 0  9997
2 39416  97.7587  16.6627 0035262 201.7723 158.1998 14.91254172665370
APRIZESAT 8             
1 39425U 13066K   26061.79281428  .00001736  00000+0  19481-3 0  9997
2 39425  97.8107  10.8372 0044596 276.4619  83.1521 14.87398720663858
BUGSAT-1 (TITA)         
1 40014U 14033E   26061.83292339  .00008565  00000+0  46573-3 0  9995
2 40014  98.0445 148.2681 0028854 181.6159 178.4982 15.14390924639734
SAUDISAT 4              
1 40016U 14033G   26061.66388387  .00001065  00000+0  14719-3 0  9992
2 40016  97.7397 211.5913 0046110  61.0687 299.5138 14.79373683630329
APRIZESAT 9             
1 40018U 14033J   26061.36929545  .00001325  00000+0  20208-3 0  9997
2 40018  97.8868 197.2967 0066323 182.6220 177.4651 14.74053070627820
APRIZESAT 10            
1 40019U 14033K   26061.79557483  .00000983  00000+0  16231-3 0  9993
2 40019  97.9469 191.2433 0077707 253.2378 106.0292 14.70736622626610
TECHDEMOSAT-1 (TDS-1)   
1 40076U 14037H   26061.50783324  .00012465  00000+0  74217-3 0  9990
2 40076  98.3756  43.3374 0004613 271.1472  88.9227 15.11376449632108
TECHNOSAT               
1 42829U 17042E   26061.44357090  .00005227  00000+0  37885-3 0  9995
2 42829  97.4139 223.2955 0019546  98.4449 261.8994 15.04208168470657
